[{"OBJECT_NAME":"X-SAT","OBJECT_ID":"2011-015C","EPOCH":"2026-03-09T22:53:38.580000","MEAN_MOTION":14.25171741,"ECCENTRICITY":0.0012844,"INCLINATION":98.3436,"RA_OF_ASC_NODE":50.7528,"ARG_OF_PERICENTER":275.8425,"MEAN_ANOMALY":84.1292,"EPHEMERIS_TYPE":0,"CLASSIFICATION_TYPE":"U","NORAD_CAT_ID":37389,"ELEMENT_SET_NO":999,"REV_AT_EPOCH":77354,"BSTAR":-4.3267073e-5,"MEAN_MOTION_DOT":-1.43e-6,"MEAN_MOTION_DDOT":0},{"OBJECT_NAME":"DMSP 5D-2 F13 DEB","OBJECT_ID":"1995-015BX","EPOCH":"2026-03-09T00:46:41.887200","MEAN_MOTION":14.22244329,"ECCENTRICITY":0.00025114,"INCLINATION":98.7649,"RA_OF_ASC_NODE":88.6954,"ARG_OF_PERICENTER":342.6841,"MEAN_ANOMALY":17.4251,"EPHEMERIS_TYPE":0,"CLASSIFICATION_TYPE":"U","NORAD_CAT_ID":40479,"ELEMENT_SET_NO":999,"REV_AT_EPOCH":56884,"BSTAR":0.00063057795,"MEAN_MOTION_DOT":1.356e-5,"MEAN_MOTION_DDOT":0}]
